{
  "type": "FeatureCollection",
  "features": [
    {
      "type": "Feature",
      "properties": {
        "norad_id": 44334,
        "name": "EUTELSAT 7C",
        "group": "eutelsat",
        "lat": -0.04304393827209046,
        "lon": 141.25206212075338,
        "alt_km": 35788.68781211459,
        "timestamp": "2025-12-07T03:52:32.142454+00:00",
        "meta_object_name": "EUTELSAT 7C",
        "meta_object_id": "2019-034B",
        "meta_epoch": "2025-12-06T03:25:30.364320",
        "meta_mean_motion": 1.00270039,
        "meta_eccentricity": 0.00034504,
        "meta_inclination": 0.0751,
        "meta_ra_of_asc_node": 179.1623,
        "meta_arg_of_pericenter": 60.529,
        "meta_mean_anomaly": 253.8532,
        "meta_ephemeris_type": 0,
        "meta_classification_type": "U",
        "meta_norad_cat_id": 44334,
        "meta_element_set_no": 999,
        "meta_rev_at_epoch": 490,
        "meta_bstar": 0,
        "meta_mean_motion_dot": 5.6e-07,
        "meta_mean_motion_ddot": 0,
        "tle_line1": "1 44334U 19034B   25340.14271255  .00000056  00000+0  00000+0 0  9995",
        "tle_line2": "2 44334   0.0751 179.1623 0003450  60.5290 253.8532  1.00270039  4909"
      },
      "geometry": {
        "type": "Point",
        "coordinates": [
          141.25206212075338,
          -0.04304393827209046
        ]
      }
    },
    {
      "type": "Feature",
      "properties": {
        "norad_id": 44624,
        "name": "EUTELSAT 5 WEST B",
        "group": "eutelsat",
        "lat": 0.040189434961984453,
        "lon": 129.28257118350115,
        "alt_km": 35795.559973805364,
        "timestamp": "2025-12-07T03:52:32.142473+00:00",
        "meta_object_name": "EUTELSAT 5 WEST B",
        "meta_object_id": "2019-067A",
        "meta_epoch": "2025-12-06T08:30:19.232064",
        "meta_mean_motion": 1.00270407,
        "meta_eccentricity": 0.00035896,
        "meta_inclination": 0.0672,
        "meta_ra_of_asc_node": 334.8834,
        "meta_arg_of_pericenter": 281.2094,
        "meta_mean_anomaly": 301.8866,
        "meta_ephemeris_type": 0,
        "meta_classification_type": "U",
        "meta_norad_cat_id": 44624,
        "meta_element_set_no": 999,
        "meta_rev_at_epoch": 2250,
        "meta_bstar": 0,
        "meta_mean_motion_dot": -3.5e-07,
        "meta_mean_motion_ddot": 0,
        "tle_line1": "1 44624U 19067A   25340.35438926 -.00000035  00000+0  00000+0 0  9994",
        "tle_line2": "2 44624   0.0672 334.8834 0003589 281.2094 301.8866  1.00270407 22503"
      },
      "geometry": {
        "type": "Point",
        "coordinates": [
          129.28257118350115,
          0.040189434961984453
        ]
      }
    },
    {
      "type": "Feature",
      "properties": {
        "norad_id": 45027,
        "name": "EUTELSAT KONNECT",
        "group": "eutelsat",
        "lat": 0.05649963672306614,
        "lon": 141.47308525535163,
        "alt_km": 35793.41343613006,
        "timestamp": "2025-12-07T03:52:32.142486+00:00",
        "meta_object_name": "EUTELSAT KONNECT",
        "meta_object_id": "2020-005B",
        "meta_epoch": "2025-12-05T22:17:29.870880",
        "meta_mean_motion": 1.00267987,
        "meta_eccentricity": 0.00018557,
        "meta_inclination": 0.0712,
        "meta_ra_of_asc_node": 98.3329,
        "meta_arg_of_pericenter": 187.648,
        "meta_mean_anomaly": 130.555,
        "meta_ephemeris_type": 0,
        "meta_classification_type": "U",
        "meta_norad_cat_id": 45027,
        "meta_element_set_no": 999,
        "meta_rev_at_epoch": 2238,
        "meta_bstar": 0,
        "meta_mean_motion_dot": 5.8e-07,
        "meta_mean_motion_ddot": 0,
        "tle_line1": "1 45027U 20005B   25339.92881795  .00000058  00000+0  00000+0 0  9997",
        "tle_line2": "2 45027   0.0712  98.3329 0001855 187.6480 130.5550  1.00267987 22381"
      },
      "geometry": {
        "type": "Point",
        "coordinates": [
          141.47308525535163,
          0.05649963672306614
        ]
      }
    },
    {
      "type": "Feature",
      "properties": {
        "norad_id": 49056,
        "name": "EUTELSAT QUANTUM",
        "group": "eutelsat",
        "lat": 0.010011744429699203,
        "lon": -178.0290992996166,
        "alt_km": 35785.24278944653,
        "timestamp": "2025-12-07T03:52:32.142499+00:00",
        "meta_object_name": "EUTELSAT QUANTUM",
        "meta_object_id": "2021-069B",
        "meta_epoch": "2025-12-06T13:53:33.274176",
        "meta_mean_motion": 1.0027055,
        "meta_eccentricity": 0.00037127,
        "meta_inclination": 0.0267,
        "meta_ra_of_asc_node": 41.909,
        "meta_arg_of_pericenter": 226.1058,
        "meta_mean_anomaly": 63.6905,
        "meta_ephemeris_type": 0,
        "meta_classification_type": "U",
        "meta_norad_cat_id": 49056,
        "meta_element_set_no": 999,
        "meta_rev_at_epoch": 1599,
        "meta_bstar": 0,
        "meta_mean_motion_dot": 1.33e-06,
        "meta_mean_motion_ddot": 0,
        "tle_line1": "1 49056U 21069B   25340.57885734  .00000133  00000+0  00000+0 0  9998",
        "tle_line2": "2 49056   0.0267  41.9090 0003712 226.1058  63.6905  1.00270550 15994"
      },
      "geometry": {
        "type": "Point",
        "coordinates": [
          -178.0290992996166,
          0.010011744429699203
        ]
      }
    },
    {
      "type": "Feature",
      "properties": {
        "norad_id": 53765,
        "name": "EUTELSAT KONNECT VHTS",
        "group": "eutelsat",
        "lat": 0.0414808570621463,
        "lon": 136.97897211958693,
        "alt_km": 35788.44664544411,
        "timestamp": "2025-12-07T03:52:32.142512+00:00",
        "meta_object_name": "EUTELSAT KONNECT VHTS",
        "meta_object_id": "2022-110A",
        "meta_epoch": "2025-12-06T08:32:34.016928",
        "meta_mean_motion": 1.00269283,
        "meta_eccentricity": 0.00027008,
        "meta_inclination": 0.0618,
        "meta_ra_of_asc_node": 107.6328,
        "meta_arg_of_pericenter": 127.7681,
        "meta_mean_anomaly": 330.8385,
        "meta_ephemeris_type": 0,
        "meta_classification_type": "U",
        "meta_norad_cat_id": 53765,
        "meta_element_set_no": 999,
        "meta_rev_at_epoch": 489,
        "meta_bstar": 0,
        "meta_mean_motion_dot": 2.4e-07,
        "meta_mean_motion_ddot": 0,
        "tle_line1": "1 53765U 22110A   25340.35594927  .00000024  00000+0  00000+0 0  9994",
        "tle_line2": "2 53765   0.0618 107.6328 0002700 127.7681 330.8385  1.00269283  4893"
      },
      "geometry": {
        "type": "Point",
        "coordinates": [
          136.97897211958693,
          0.0414808570621463
        ]
      }
    },
    {
      "type": "Feature",
      "properties": {
        "norad_id": 54048,
        "name": "EUTELSAT HOTBIRD 13F",
        "group": "eutelsat",
        "lat": -0.022716718731766186,
        "lon": 147.32730138675493,
        "alt_km": 35795.019747836704,
        "timestamp": "2025-12-07T03:52:32.142524+00:00",
        "meta_object_name": "EUTELSAT HOTBIRD 13F",
        "meta_object_id": "2022-134A",
        "meta_epoch": "2025-12-06T01:44:32.536320",
        "meta_mean_motion": 1.00271355,
        "meta_eccentricity": 0.00023431,
        "meta_inclination": 0.0469,
        "meta_ra_of_asc_node": 294.3782,
        "meta_arg_of_pericenter": 57.7205,
        "meta_mean_anomaly": 122.1557,
        "meta_ephemeris_type": 0,
        "meta_classification_type": "U",
        "meta_norad_cat_id": 54048,
        "meta_element_set_no": 999,
        "meta_rev_at_epoch": 1144,
        "meta_bstar": 0,
        "meta_mean_motion_dot": 9.6e-07,
        "meta_mean_motion_ddot": 0,
        "tle_line1": "1 54048U 22134A   25340.07259880  .00000096  00000+0  00000+0 0  9999",
        "tle_line2": "2 54048   0.0469 294.3782 0002343  57.7205 122.1557  1.00271355 11442"
      },
      "geometry": {
        "type": "Point",
        "coordinates": [
          147.32730138675493,
          -0.022716718731766186
        ]
      }
    },
    {
      "type": "Feature",
      "properties": {
        "norad_id": 54225,
        "name": "EUTELSAT HOTBIRD 13G",
        "group": "eutelsat",
        "lat": -0.030834089246699132,
        "lon": 147.28881586660071,
        "alt_km": 35780.25701281915,
        "timestamp": "2025-12-07T03:52:32.142536+00:00",
        "meta_object_name": "EUTELSAT HOTBIRD 13G",
        "meta_object_id": "2022-146A",
        "meta_epoch": "2025-12-05T15:28:18.292224",
        "meta_mean_motion": 1.00270321,
        "meta_eccentricity": 0.00019255,
        "meta_inclination": 0.0461,
        "meta_ra_of_asc_node": 235.0424,
        "meta_arg_of_pericenter": 313.1322,
        "meta_mean_anomaly": 131.5912,
        "meta_ephemeris_type": 0,
        "meta_classification_type": "U",
        "meta_norad_cat_id": 54225,
        "meta_element_set_no": 999,
        "meta_rev_at_epoch": 552,
        "meta_bstar": 0,
        "meta_mean_motion_dot": 9.7e-07,
        "meta_mean_motion_ddot": 0,
        "tle_line1": "1 54225U 22146A   25339.64465616  .00000097  00000+0  00000+0 0  9997",
        "tle_line2": "2 54225   0.0461 235.0424 0001925 313.1322 131.5912  1.00270321  5523"
      },
      "geometry": {
        "type": "Point",
        "coordinates": [
          147.28881586660071,
          -0.030834089246699132
        ]
      }
    }
  ]
}